[Satellite]
VERSION=1.1
NAME=OSCAR 25
NICKNAME=OSCAR 25
TLE1=1 19419U 88074A   17186.06608164  .00000047  00000-0  64928-4 0  9999
TLE2=2 19419  89.9817  18.9404 0097748  38.2280  76.3720 13.42166939412851
